[{"OBJECT_NAME":"TIANQI-23","OBJECT_ID":"2023-135C","EPOCH":"2026-03-09T20:31:13.186272","MEAN_MOTION":14.2309434,"ECCENTRICITY":0.00136094,"INCLINATION":49.9718,"RA_OF_ASC_NODE":210.4766,"ARG_OF_PERICENTER":271.4646,"MEAN_ANOMALY":88.4707,"EPHEMERIS_TYPE":0,"CLASSIFICATION_TYPE":"U","NORAD_CAT_ID":57794,"ELEMENT_SET_NO":999,"REV_AT_EPOCH":13048,"BSTAR":0.00026414029,"MEAN_MOTION_DOT":4.41e-6,"MEAN_MOTION_DDOT":0},{"OBJECT_NAME":"SCOUT G-1 R\/B","OBJECT_ID":"1991-045B","EPOCH":"2026-03-09T23:05:33.655776","MEAN_MOTION":14.27583809,"ECCENTRICITY":0.00661896,"INCLINATION":89.5242,"RA_OF_ASC_NODE":265.6708,"ARG_OF_PERICENTER":177.7171,"MEAN_ANOMALY":299.4862,"EPHEMERIS_TYPE":0,"CLASSIFICATION_TYPE":"U","NORAD_CAT_ID":21528,"ELEMENT_SET_NO":999,"REV_AT_EPOCH":80340,"BSTAR":0.0001660152,"MEAN_MOTION_DOT":4.31e-6,"MEAN_MOTION_DDOT":0}]
